OBJECT_NAME,OBJECT_ID,EPOCH,MEAN_MOTION,ECCENTRICITY,INCLINATION,RA_OF_ASC_NODE,ARG_OF_PERICENTER,MEAN_ANOMALY,EPHEMERIS_TYPE,CLASSIFICATION_TYPE,NORAD_CAT_ID,ELEMENT_SET_NO,REV_AT_EPOCH,BSTAR,MEAN_MOTION_DOT,MEAN_MOTION_DDOT
LEMUR-2-STARLIGHT,2025-276DY,2026-07-12T15:59:40.843680,14.99335039,.00148107,97.5235,263.4338,54.7591,305.5017,0,U,66783,999,3401,.30465516E-3,.3675E-4,0
LEMUR-2-TARTIFLETTE,2025-276DZ,2026-07-12T17:33:26.701920,14.99322354,.00138728,97.5235,263.5049,62.7426,297.5209,0,U,66784,999,3402,.29192288E-3,.3516E-4,0
LEMUR-2-VUKASIN,2025-276EA,2026-07-13T04:05:47.766336,15.00535741,.00034042,97.5238,264.2842,60.3374,299.8189,0,U,66785,999,3404,.22475906E-3,.2777E-4,0
LEMUR-2-HOTSPUR-TOM,2025-276EB,2026-07-12T19:01:15.763584,14.99227481,.00137831,97.5223,263.5388,53.6491,306.6002,0,U,66786,999,3396,.28941245E-3,.3477E-4,0
LEMUR-2-MYRA,2025-276EC,2026-07-13T14:27:57.267360,15.00578120,.00187098,97.5223,264.6220,59.0828,301.2233,0,U,66787,999,3417,.28270649E-3,.3524E-4,0
LEMUR-2 FIKRETDENGIZ,2026-004A,2026-07-12T22:47:09.379968,14.88507915,.00103065,97.8023,192.1152,62.1023,298.1237,0,U,67363,999,2711,.27683743E-3,.252E-4,0
TWILIGHT-1 OBJECT B,2026-004B,2026-07-13T12:33:51.392736,14.87790232,.00098546,97.8074,192.6825,50.7792,309.4298,0,U,67364,999,2720,.10932669E-3,.944E-5,0
LEMUR-2-MARIO-SOUSA,2026-004C,2026-07-13T12:49:41.776320,14.88718766,.0009922,97.7996,192.6866,61.6788,298.5429,0,U,67365,999,2721,.28474413E-3,.2607E-4,0
LEMUR-2-SONNENBLUME,2026-004E,2026-07-13T12:53:21.968448,14.88448243,.00094856,97.8000,192.6626,62.7623,297.4560,0,U,67367,999,2721,.16491883E-3,.1477E-4,0
LEMUR-2-WOBLER,2026-004F,2026-07-13T14:15:07.248096,14.88690528,.00095742,97.8046,192.8678,54.6705,305.5406,0,U,67368,999,2722,.22363834E-3,.2034E-4,0
LEMUR-2-GRAM-E-SUE,2026-004H,2026-07-13T12:26:49.673472,14.88584867,.00086997,97.7986,192.6609,65.4084,294.8038,0,U,67370,999,2721,.14215162E-3,.1269E-4,0
LEMUR-2-KATIE,2026-004AA,2026-07-13T13:04:13.897056,14.90242123,.00036348,97.8042,193.2324,38.0849,322.0625,0,U,67387,999,2723,.3118984E-3,.2971E-4,0
LEMUR-2-HCS-BAZUS,2026-004AB,2026-07-13T13:01:52.912992,14.90256181,.00031542,97.8038,193.2094,36.4661,323.6771,0,U,67388,999,2723,.17206729E-3,.1614E-4,0
