LEMUR-2-STARLIGHT       
1 66783U 25276DY  26193.66644495  .00003675  00000+0  30466-3 0  9999
2 66783  97.5235 263.4338 0014810  54.7591 305.5017 14.99335039 34012
LEMUR-2-TARTIFLETTE     
1 66784U 25276DZ  26193.73155905  .00003516  00000+0  29192-3 0  9999
2 66784  97.5235 263.5049 0013872  62.7426 297.5209 14.99322354 34026
LEMUR-2-VUKASIN         
1 66785U 25276EA  26194.17069174  .00002777  00000+0  22476-3 0  9997
2 66785  97.5238 264.2842 0003404  60.3374 299.8189 15.00535741 34048
LEMUR-2-HOTSPUR-TOM     
1 66786U 25276EB  26193.79254356  .00003477  00000+0  28941-3 0  9994
2 66786  97.5223 263.5388 0013783  53.6491 306.6002 14.99227481 33963
LEMUR-2-MYRA            
1 66787U 25276EC  26194.60274615  .00003524  00000+0  28271-3 0  9995
2 66787  97.5223 264.6220 0018709  59.0828 301.2233 15.00578120 34171
LEMUR-2 FIKRETDENGIZ    
1 67363U 26004A   26193.94941412  .00002520  00000+0  27684-3 0  9990
2 67363  97.8023 192.1152 0010306  62.1023 298.1237 14.88507915 27112
TWILIGHT-1 OBJECT B     
1 67364U 26004B   26194.52351149  .00000944  00000+0  10933-3 0  9995
2 67364  97.8074 192.6825 0009854  50.7792 309.4298 14.87790232 27201
LEMUR-2-MARIO-SOUSA     
1 67365U 26004C   26194.53451130  .00002607  00000+0  28474-3 0  9995
2 67365  97.7996 192.6866 0009922  61.6788 298.5429 14.88718766 27219
LEMUR-2-SONNENBLUME     
1 67367U 26004E   26194.53705982  .00001477  00000+0  16492-3 0  9995
2 67367  97.8000 192.6626 0009485  62.7623 297.4560 14.88448243 27210
LEMUR-2-WOBLER          
1 67368U 26004F   26194.59383389  .00002034  00000+0  22364-3 0  9990
2 67368  97.8046 192.8678 0009574  54.6705 305.5406 14.88690528 27226
LEMUR-2-GRAM-E-SUE      
1 67370U 26004H   26194.51863048  .00001269  00000+0  14215-3 0  9995
2 67370  97.7986 192.6609 0008699  65.4084 294.8038 14.88584867 27218
LEMUR-2-KATIE           
1 67387U 26004AA  26194.54460529  .00002971  00000+0  31190-3 0  9995
2 67387  97.8042 193.2324 0003634  38.0849 322.0625 14.90242123 27237
LEMUR-2-HCS-BAZUS       
1 67388U 26004AB  26194.54297353  .00001614  00000+0  17207-3 0  9995
2 67388  97.8038 193.2094 0003154  36.4661 323.6771 14.90256181 27236
